EUTELSAT 7A             
1 28187U 04008A   25279.52159104  .00000109  00000+0  00000+0 0  9998
2 28187   5.1812  75.0186 0001221 154.0382 194.9773  1.00273751 78800
EUTELSAT 174A           
1 28924U 05052A   25279.43239078  .00000015  00000+0  00000+0 0  9992
2 28924   3.5713  79.6576 0006313 117.9567 147.4065  1.00271267 49786
EUTELSAT HOTBIRD 13B    
1 29270U 06032A   25279.50097541  .00000159  00000+0  00000+0 0  9990
2 29270   1.0003  84.9838 0003849 104.4323  39.4446  1.00271256 44762
EUTELSAT HOTBIRD 13C    
1 33459U 08065A   25279.34934279 -.00000096  00000+0  00000+0 0  9993
2 33459   2.2920  82.1796 0005449 135.9384 270.4341  1.00271526 44800
EUTELSAT 36B            
1 36101U 09065A   25279.50461542  .00000000  00000+0  00000+0 0  9991
2 36101   0.0274  25.2642 0006195 179.4418  42.8511  1.00272260 58163
EUTELSAT KA-SAT 9A      
1 37258U 10069A   25279.35367615  .00000064  00000+0  00000+0 0  9990
2 37258   0.0581 322.7751 0002804 206.0284 342.8208  1.00273140 41464
EUTELSAT 7 WEST A       
1 37816U 11051A   25279.35038279 -.00000058  00000+0  00000+0 0  9997
2 37816   0.0664  16.4991 0006507 179.4130 298.2017  1.00271483 51344
EUTELSAT 16A            
1 37836U 11057A   25279.28364917  .00000106  00000+0  00000+0 0  9991
2 37836   0.0668  15.1465 0005403 182.1942 295.9822  1.00274006  4786
